[{"OBJECT_NAME":"STARLINK-32221","OBJECT_ID":"2024-136P","EPOCH":"2026-03-09T06:53:37.601664","MEAN_MOTION":15.30189895,"ECCENTRICITY":0.00014395,"INCLINATION":53.1602,"RA_OF_ASC_NODE":77.4827,"ARG_OF_PERICENTER":81.3445,"MEAN_ANOMALY":278.7718,"EPHEMERIS_TYPE":0,"CLASSIFICATION_TYPE":"U","NORAD_CAT_ID":60342,"ELEMENT_SET_NO":999,"REV_AT_EPOCH":8960,"BSTAR":-7.759244e-6,"MEAN_MOTION_DOT":-5.89e-6,"MEAN_MOTION_DDOT":0},{"OBJECT_NAME":"TRANSPORTER-1 OBJECT L","OBJECT_ID":"2021-006L","EPOCH":"2026-03-09T22:38:42.795168","MEAN_MOTION":15.33192932,"ECCENTRICITY":0.00114726,"INCLINATION":97.2368,"RA_OF_ASC_NODE":117.6447,"ARG_OF_PERICENTER":180.5165,"MEAN_ANOMALY":179.6068,"EPHEMERIS_TYPE":0,"CLASSIFICATION_TYPE":"U","NORAD_CAT_ID":47423,"ELEMENT_SET_NO":999,"REV_AT_EPOCH":28445,"BSTAR":0.00025636794,"MEAN_MOTION_DOT":8.162e-5,"MEAN_MOTION_DDOT":0}]
